NORAD_CAT_ID,OBJECT_NAME,OBJECT_TYPE,EPOCH,MEAN_MOTION,ECCENTRICITY,INCLINATION,RA_OF_ASC_NODE,ARG_OF_PERICENTER,MEAN_ANOMALY,BSTAR,MEAN_MOTION_DOT,MEAN_MOTION_DDOT,TLE_LINE0,TLE_LINE1,TLE_LINE2,SEMIMAJOR_AXIS,PERIOD,APOGEE,PERIGEE,DECAYED
52494.0,STARLINK-3857,PAYLOAD,2023-10-28 18:25:16,15.08833037,0.0001634,53.2183,322.931,98.1159,262.0018,-4.4131e-06,-3.58e-06,0.0,0 STARLINK-3857,1 52494U 22049AV  23301.76755488 -.00000358  00000-0 -44131-5 0  9996,2 52494  53.2183 322.9310 0001634  98.1159 262.0018 15.08833037 82125,6917.902,95.438,540.897,538.636,0.0
52494.0,STARLINK-3857,PAYLOAD,2023-10-29 08:43:44,15.08854016,0.0001538,53.2172,320.2534,86.067,274.0498,0.00043455,6.637e-05,0.0,0 STARLINK-3857,1 52494U 22049AV  23302.36370827  .00006637  00000-0  43455-3 0  9993,2 52494  53.2172 320.2534 0001538  86.0670 274.0498 15.08854016 82371,6917.838,95.437,540.767,538.639,0.0
52494.0,STARLINK-3857,PAYLOAD,2023-10-29 18:16:03,15.08846441,0.0001609,53.2167,318.4672,91.8939,268.2238,0.0003346,5.042e-05,0.0,0 STARLINK-3857,1 52494U 22049AV  23302.76115195  .00005042  00000-0  33460-3 0  9996,2 52494  53.2167 318.4672 0001609  91.8939 268.2238 15.08846441 82435,6917.861,95.437,540.839,538.613,0.0
52494.0,STARLINK-3857,PAYLOAD,2023-10-30 08:34:31,15.08845679,0.0001579,53.2164,315.7924,91.3225,268.7948,0.00042807,6.532e-05,0.0,0 STARLINK-3857,1 52494U 22049AV  23303.35731374  .00006532  00000-0  42807-3 0  9995,2 52494  53.2164 315.7924 0001579  91.3225 268.7948 15.08845679 82526,6917.863,95.437,540.82,538.636,0.0
52494.0,STARLINK-3857,PAYLOAD,2023-10-30 18:06:51,15.08829676,0.0001752,53.2159,314.0071,90.2367,269.8826,0.00014219,1.975e-05,0.0,0 STARLINK-3857,1 52494U 22049AV  23303.75475922  .00001975  00000-0  14219-3 0  9995,2 52494  53.2159 314.0071 0001752  90.2367 269.8826 15.08829676 82585,6917.912,95.438,540.989,538.565,0.0
52494.0,STARLINK-3857,PAYLOAD,2023-10-31 08:25:19,15.08834744,0.0001664,53.2167,311.3318,86.8231,273.2951,2.8485e-05,1.65e-06,0.0,0 STARLINK-3857,1 52494U 22049AV  23304.35092284  .00000165  00000-0  28485-4 0  9999,2 52494  53.2167 311.3318 0001664  86.8231 273.2951 15.08834744 82514,6917.896,95.438,540.913,538.61,0.0
52494.0,STARLINK-3857,PAYLOAD,2023-10-31 17:57:38,15.0883906,0.0001655,53.217,309.5474,86.1156,274.0025,0.00020774,3.02e-05,0.0,0 STARLINK-3857,1 52494U 22049AV  23304.74836387  .00003020  00000-0  20774-3 0  9997,2 52494  53.2170 309.5474 0001655  86.1156 274.0025 15.08839060 82572,6917.883,95.438,540.893,538.603,0.0
52494.0,STARLINK-3857,PAYLOAD,2023-11-01 05:05:20,15.0884775,0.0001642,53.2169,307.4655,92.5425,267.5755,0.00042959,6.557e-05,0.0,0 STARLINK-3857,1 52494U 22049AV  23305.21204208  .00006557  00000-0  42959-3 0  9998,2 52494  53.2169 307.4655 0001642  92.5425 267.5755 15.08847750 82802,6917.857,95.437,540.858,538.586,0.0
52494.0,STARLINK-3857,PAYLOAD,2023-11-01 06:40:43,15.0885164,0.0001629,53.2164,307.1679,92.882,267.2358,0.00047813,7.332e-05,0.0,0 STARLINK-3857,1 52494U 22049AV  23305.27828061  .00007332  00000-0  47813-3 0  9999,2 52494  53.2164 307.1679 0001629  92.8820 267.2358 15.08851640 82659,6917.845,95.437,540.837,538.583,0.0
52494.0,STARLINK-3857,PAYLOAD,2023-11-02 04:56:07,15.08845787,0.0001553,53.216,303.0048,91.688,268.4291,0.00016881,2.4e-05,0.0,0 STARLINK-3857,1 52494U 22049AV  23306.20564101  .00002400  00000-0  16881-3 0  9997,2 52494  53.2160 303.0048 0001553  91.6880 268.4291 15.08845787 82956,6917.863,95.437,540.802,538.653,0.0
52494.0,STARLINK-3857,PAYLOAD,2023-11-02 09:42:16,15.08853179,0.0001662,53.2168,302.1116,101.3151,258.8028,0.00036475,5.524e-05,0.0,0 STARLINK-3857,1 52494U 22049AV  23306.40435805  .00005524  00000-0  36475-3 0  9998,2 52494  53.2168 302.1116 0001662 101.3151 258.8028 15.08853179 82822,6917.84,95.437,540.855,538.555,0.0
52494.0,STARLINK-3857,PAYLOAD,2023-11-03 06:22:17,15.08845873,0.0001724,53.2165,298.2441,104.7769,255.3415,7.5368e-05,9.12e-06,0.0,0 STARLINK-3857,1 52494U 22049AV  23307.26547797  .00000912  00000-0  75368-4 0  9998,2 52494  53.2165 298.2441 0001724 104.7769 255.3415 15.08845873 83113,6917.862,95.437,540.92,538.535,0.0
52494.0,STARLINK-3857,PAYLOAD,2023-11-04 09:23:49,15.08865469,0.0001426,53.2164,293.1901,105.3695,254.7455,0.00055292,8.529e-05,0.0,0 STARLINK-3857,1 52494U 22049AV  23308.39154709  .00008529  00000-0  55292-3 0  9995,2 52494  53.2164 293.1901 0001426 105.3695 254.7455 15.08865469 83289,6917.803,95.436,540.654,538.681,0.0
52494.0,STARLINK-3857,PAYLOAD,2023-11-04 15:45:22,15.08852046,0.000155,53.2163,291.9991,92.3837,267.7333,0.000183,2.627e-05,0.0,0 STARLINK-3857,1 52494U 22049AV  23308.65650920  .00002627  00000-0  18300-3 0  9992,2 52494  53.2163 291.9991 0001550  92.3837 267.7333 15.08852046 83325,6917.844,95.437,540.781,538.636,0.0
52494.0,STARLINK-3857,PAYLOAD,2023-11-05 04:28:28,15.08841876,0.0001695,53.2174,289.6268,110.4237,249.6937,5.1307e-05,5.29e-06,0.0,0 STARLINK-3857,1 52494U 22049AV  23309.18643519  .00000529  00000-0  51307-4 0  9991,2 52494  53.2174 289.6268 0001695 110.4237 249.6937 15.08841876 83401,6917.875,95.437,540.912,538.567,0.0
52494.0,STARLINK-3857,PAYLOAD,2023-11-05 07:39:14,15.088515,0.000163,53.2171,289.0305,104.2592,255.8581,0.00041833,6.378e-05,0.0,0 STARLINK-3857,1 52494U 22049AV  23309.31891310  .00006378  00000-0  41833-3 0  9990,2 52494  53.2171 289.0305 0001630 104.2592 255.8581 15.08851500 83261,6917.845,95.437,540.838,538.583,0.0
52494.0,STARLINK-3857,PAYLOAD,2023-11-05 15:36:10,15.08837284,0.0001705,53.217,287.5403,94.3203,265.7984,0.00040628,6.183e-05,0.0,0 STARLINK-3857,1 52494U 22049AV  23309.65011718  .00006183  00000-0  40628-3 0  9998,2 52494  53.2170 287.5403 0001705  94.3203 265.7984 15.08837284 83319,6917.889,95.438,540.933,538.574,0.0
52494.0,STARLINK-3857,PAYLOAD,2023-11-06 02:43:51,15.0886481,0.000103,53.2171,285.459,102.2145,257.8962,0.0011591,0.0001822,0.0,0 STARLINK-3857,1 52494U 22049AV  23310.11378943  .00018220  00000-0  11591-2 0  9998,2 52494  53.2171 285.4590 0001030 102.2145 257.8962 15.08864810 83547,6917.805,95.436,540.382,538.957,0.0
52494.0,STARLINK-3857,PAYLOAD,2023-11-06 07:30:00,15.08898282,0.0001955,53.2172,284.5681,91.7125,268.4091,0.0024908,0.0003964,0.0,0 STARLINK-3857,1 52494U 22049AV  23310.31250431  .00039640  00000-0  24908-2 0  9996,2 52494  53.2172 284.5681 0001955  91.7125 268.4091 15.08898282 83579,6917.702,95.434,540.92,538.215,0.0
52494.0,STARLINK-3857,PAYLOAD,2023-11-07 04:10:02,15.08830075,0.0001795,53.2165,280.7037,152.958,207.1506,0.0016467,0.00026009,0.0,0 STARLINK-3857,1 52494U 22049AV  23311.17363496  .00026009  00000-0  16467-2 0  9993,2 52494  53.2165 280.7037 0001795 152.9580 207.1506 15.08830075 83703,6917.911,95.438,541.017,538.534,0.0
52494.0,STARLINK-3857,PAYLOAD,2023-11-07 07:20:49,15.08808358,0.0001316,53.2164,280.1092,80.8456,279.2685,0.0020875,0.00033062,0.0,0 STARLINK-3857,1 52494U 22049AV  23311.30612290  .00033062  00000-0  20875-2 0  9992,2 52494  53.2164 280.1092 0001316  80.8456 279.2685 15.08808358 83726,6917.977,95.44,540.753,538.932,0.0
52494.0,STARLINK-3857,PAYLOAD,2023-11-07 15:17:45,15.08813544,0.0001414,53.2165,278.6222,82.7793,277.336,0.0012025,0.00018888,0.0,0 STARLINK-3857,1 52494U 22049AV  23311.63733037  .00018888  00000-0  12025-2 0  9998,2 52494  53.2165 278.6222 0001414  82.7793 277.3360 15.08813544 83775,6917.961,95.439,540.804,538.848,0.0
52494.0,STARLINK-3857,PAYLOAD,2023-11-08 07:11:36,15.08855548,0.0001406,53.2162,275.6466,89.4176,270.6977,0.0017843,0.00028235,0.0,0 STARLINK-3857,1 52494U 22049AV  23312.29973062  .00028235  00000-0  17843-2 0  9995,2 52494  53.2162 275.6466 0001406  89.4176 270.6977 15.08855548 83870,6917.833,95.437,540.671,538.725,0.0
52494.0,STARLINK-3857,PAYLOAD,2023-11-09 03:51:37,15.0884789,0.0001417,53.2169,271.7828,86.0956,274.0198,0.0011983,0.00018838,0.0,0 STARLINK-3857,1 52494U 22049AV  23313.16085393  .00018838  00000-0  11983-2 0  9990,2 52494  53.2169 271.7828 0001417  86.0956 274.0198 15.08847890 84007,6917.856,95.437,540.702,538.741,0.0
52494.0,STARLINK-3857,PAYLOAD,2023-11-10 03:42:24,15.08849344,0.0001655,53.2174,267.3208,97.5839,262.5341,0.0006232,9.647e-05,0.0,0 STARLINK-3857,1 52494U 22049AV  23314.15445413  .00009647  00000-0  62320-3 0  9993,2 52494  53.2174 267.3208 0001655  97.5839 262.5341 15.08849344 84151,6917.852,95.437,540.862,538.572,0.0
52494.0,STARLINK-3857,PAYLOAD,2023-11-11 01:57:48,15.08846095,0.0001574,53.2176,263.1568,96.728,263.3891,0.00028835,4.305e-05,0.0,0 STARLINK-3857,1 52494U 22049AV  23315.08181446  .00004305  00000-0  28835-3 0  9998,2 52494  53.2176 263.1568 0001574  96.7280 263.3891 15.08846095 84291,6917.862,95.437,540.816,538.638,0.0
52494.0,STARLINK-3857,PAYLOAD,2023-11-11 13:05:30,15.08844569,0.0001574,53.2176,261.0739,97.5502,262.5669,0.00017649,2.522e-05,0.0,0 STARLINK-3857,1 52494U 22049AV  23315.54549387  .00002522  00000-0  17649-3 0  9991,2 52494  53.2176 261.0739 0001574  97.5502 262.5669 15.08844569 84203,6917.866,95.437,540.82,538.643,0.0
52494.0,STARLINK-3857,PAYLOAD,2023-11-12 03:23:58,15.08849024,0.0001502,53.2171,258.4017,95.7803,264.336,0.00013576,1.874e-05,0.0,0 STARLINK-3857,1 52494U 22049AV  23316.14164954  .00001874  00000-0  13576-3 0  9995,2 52494  53.2171 258.4017 0001502  95.7803 264.3360 15.08849024 84458,6917.853,95.437,540.757,538.679,0.0
52494.0,STARLINK-3857,PAYLOAD,2023-11-12 12:56:17,15.08847502,0.0001453,53.2174,256.6177,93.4158,266.7001,0.0001791,2.564e-05,0.0,0 STARLINK-3857,1 52494U 22049AV  23316.53909141  .00002564  00000-0  17910-3 0  9996,2 52494  53.2174 256.6177 0001453  93.4158 266.7001 15.08847502 84357,6917.857,95.437,540.728,538.717,0.0
52494.0,STARLINK-3857,PAYLOAD,2023-11-13 03:14:45,15.08841222,0.0001449,53.2167,253.9432,95.5758,264.54,6.7888e-05,7.93e-06,0.0,0 STARLINK-3857,1 52494U 22049AV  23317.13525423  .00000793  00000-0  67888-4 0  9992,2 52494  53.2167 253.9432 0001449  95.5758 264.5400 15.08841222 84607,6917.877,95.437,540.744,538.739,0.0
